{
  "norad_id": 53745,
  "name": "STARLINK-4656",
  "history": [
    {
      "epoch": "2026-03-28T15:32:54.811104Z",
      "apogee_km": 540.6136951831804,
      "perigee_km": 538.8496386731131,
      "latitude_deg": 1.8189493810317586e-05,
      "longitude_deg": 119.8492414840983,
      "height_km": 540.7890891021291,
      "semi_major_axis_km": 6917.868666928146,
      "eccentricity": 0.0001275,
      "inclination_deg": 53.2154,
      "raan_deg": 179.1429,
      "arg_perigee_deg": 100.5693,
      "mean_anomaly_deg": 259.5443,
      "mean_motion_rev_day": 15.08843835
    },
    {
      "epoch": "2026-03-28T23:29:50.822880Z",
      "apogee_km": 540.5186794413894,
      "perigee_km": 538.9801415036991,
      "latitude_deg": 2.4117853662574528e-05,
      "longitude_deg": -1.1970860386588085,
      "height_km": 540.7349466785224,
      "semi_major_axis_km": 6917.8864104725435,
      "eccentricity": 0.0001112,
      "inclination_deg": 53.2165,
      "raan_deg": 177.6564,
      "arg_perigee_deg": 96.6873,
      "mean_anomaly_deg": 263.4246,
      "mean_motion_rev_day": 15.0883803
    }
  ]
}